2024-173E               
1 61231U 24173E   26065.73780222  .00002848  00000+0  13860-3 0  9992
2 61231  97.4124 139.8220 0001700  89.2671 270.8758 15.19185166 80208
FLOCK 4H-2              
1 66705U 25276AR  26068.76792564  .00008768  00000+0  41566-3 0  9997
2 66705  97.4241 144.0888 0000813  23.7853 336.3419 15.19528345 15330
