[{"OBJECT_NAME":"OBJECT E","OBJECT_ID":"2024-173E","EPOCH":"2026-03-06T17:42:26.111808","MEAN_MOTION":15.19185166,"ECCENTRICITY":0.00017005,"INCLINATION":97.4124,"RA_OF_ASC_NODE":139.822,"ARG_OF_PERICENTER":89.2671,"MEAN_ANOMALY":270.8758,"EPHEMERIS_TYPE":0,"CLASSIFICATION_TYPE":"U","NORAD_CAT_ID":61231,"ELEMENT_SET_NO":999,"REV_AT_EPOCH":8020,"BSTAR":0.00013859811,"MEAN_MOTION_DOT":2.848e-5,"MEAN_MOTION_DDOT":0},{"OBJECT_NAME":"FLOCK 4H-2","OBJECT_ID":"2025-276AR","EPOCH":"2026-03-09T18:25:48.775296","MEAN_MOTION":15.19528345,"ECCENTRICITY":8.129e-5,"INCLINATION":97.4241,"RA_OF_ASC_NODE":144.0888,"ARG_OF_PERICENTER":23.7853,"MEAN_ANOMALY":336.3419,"EPHEMERIS_TYPE":0,"CLASSIFICATION_TYPE":"U","NORAD_CAT_ID":66705,"ELEMENT_SET_NO":999,"REV_AT_EPOCH":1533,"BSTAR":0.00041565805,"MEAN_MOTION_DOT":8.768e-5,"MEAN_MOTION_DDOT":0}]
